{"type": "FeatureCollection", "features": [ {"type": "Feature", "properties": {"norad_id": 33917, "name": "COSMOS 2251 DEB", "group": "cosmos-2251-debris", "lat": -16.170945447730528, "lon": 103.32327107333026, "alt_km": 1178.583856790765, "timestamp": "2025-12-21T11:31:43.252427+00:00", "meta": {"OBJECT_NAME": "COSMOS 2251 DEB", "OBJECT_ID": "1993-036DW", "EPOCH": "2025-12-21T01:05:42.516672", "MEAN_MOTION": 13.69375159, "ECCENTRICITY": 0.0331264, "INCLINATION": 74.1072, "RA_OF_ASC_NODE": 108.7746, "ARG_OF_PERICENTER": 207.9279, "MEAN_ANOMALY": 150.3716, "EPHEMERIS_TYPE": 0, "CLASSIFICATION_TYPE": "U", "NORAD_CAT_ID": 33917, "ELEMENT_SET_NO": 999, "REV_AT_EPOCH": 83847, "BSTAR": 0.00060207, "MEAN_MOTION_DOT": 7.47e-06, "MEAN_MOTION_DDOT": 0}, "tle": {"line1": "1 33917U 93036DW  25355.04563098  .00000747  00000+0  60207-3 0  9994", "line2": "2 33917  74.1072 108.7746 0331264 207.9279 150.3716 13.69375159838476"}}, "geometry": {"type": "Point", "coordinates": [103.32327107333026, -16.170945447730528]}}, {"type": "Feature", "properties": {"norad_id": 33920, "name": "COSMOS 2251 DEB", "group": "cosmos-2251-debris", "lat": -19.14166557915904, "lon": -83.87546107560989, "alt_km": 686.9252195011468, "timestamp": "2025-12-21T11:31:43.252438+00:00", "meta": {"OBJECT_NAME": "COSMOS 2251 DEB", "OBJECT_ID": "1993-036DZ", "EPOCH": "2025-12-20T20:48:09.626976", "MEAN_MOTION": 14.58390776, "ECCENTRICITY": 0.0037924, "INCLINATION": 74.062, "RA_OF_ASC_NODE": 282.9824, "ARG_OF_PERICENTER": 288.4211, "MEAN_ANOMALY": 71.2832, "EPHEMERIS_TYPE": 0, "CLASSIFICATION_TYPE": "U", "NORAD_CAT_ID": 33920, "ELEMENT_SET_NO": 999, "REV_AT_EPOCH": 88233, "BSTAR": 0.0010683, "MEAN_MOTION_DOT": 4.973e-05, "MEAN_MOTION_DDOT": 0}, "tle": {"line1": "1 33920U 93036DZ  25354.86677809  .00004973  00000+0  10683-2 0  9990", "line2": "2 33920  74.0620 282.9824 0037924 288.4211  71.2832 14.58390776882331"}}, "geometry": {"type": "Point", "coordinates": [-83.87546107560989, -19.14166557915904]}}, {"type": "Feature", "properties": {"norad_id": 33922, "name": "COSMOS 2251 DEB", "group": "cosmos-2251-debris", "lat": -23.378212442219873, "lon": -41.52219967117888, "alt_km": 719.0535334833203, "timestamp": "2025-12-21T11:31:43.252448+00:00", "meta": {"OBJECT_NAME": "COSMOS 2251 DEB", "OBJECT_ID": "1993-036EB", "EPOCH": "2025-12-21T03:07:17.391360", "MEAN_MOTION": 14.49534538, "ECCENTRICITY": 0.0023158, "INCLINATION": 74.0468, "RA_OF_ASC_NODE": 132.0313, "ARG_OF_PERICENTER": 241.627, "MEAN_ANOMALY": 295.5653, "EPHEMERIS_TYPE": 0, "CLASSIFICATION_TYPE": "U", "NORAD_CAT_ID": 33922, "ELEMENT_SET_NO": 999, "REV_AT_EPOCH": 88699, "BSTAR": 0.00033844, "MEAN_MOTION_DOT": 1.275e-05, "MEAN_MOTION_DDOT": 0}, "tle": {"line1": "1 33922U 93036EB  25355.13006240  .00001275  00000+0  33844-3 0  9995", "line2": "2 33922  74.0468 132.0313 0023158 241.6270 295.5653 14.49534538886995"}}, "geometry": {"type": "Point", "coordinates": [-41.52219967117888, -23.378212442219873]}}, {"type": "Feature", "properties": {"norad_id": 33924, "name": "COSMOS 2251 DEB", "group": "cosmos-2251-debris", "lat": -64.861483580953, "lon": 114.09807067786006, "alt_km": 841.8416948137374, "timestamp": "2025-12-21T11:31:43.252459+00:00", "meta": {"OBJECT_NAME": "COSMOS 2251 DEB", "OBJECT_ID": "1993-036ED", "EPOCH": "2025-12-21T03:08:40.546176", "MEAN_MOTION": 13.50235174, "ECCENTRICITY": 0.0403882, "INCLINATION": 73.9134, "RA_OF_ASC_NODE": 256.7132, "ARG_OF_PERICENTER": 290.6862, "MEAN_ANOMALY": 65.1391, "EPHEMERIS_TYPE": 0, "CLASSIFICATION_TYPE": "U", "NORAD_CAT_ID": 33924, "ELEMENT_SET_NO": 999, "REV_AT_EPOCH": 82852, "BSTAR": 0.00037228, "MEAN_MOTION_DOT": 3.7e-06, "MEAN_MOTION_DDOT": 0}, "tle": {"line1": "1 33924U 93036ED  25355.13102484  .00000370  00000+0  37228-3 0  9999", "line2": "2 33924  73.9134 256.7132 0403882 290.6862  65.1391 13.50235174828525"}}, "geometry": {"type": "Point", "coordinates": [114.09807067786006, -64.861483580953]}}, {"type": "Feature", "properties": {"norad_id": 33928, "name": "COSMOS 2251 DEB", "group": "cosmos-2251-debris", "lat": -17.353831366350033, "lon": 30.939614580376084, "alt_km": 695.8908922089258, "timestamp": "2025-12-21T11:31:43.252469+00:00", "meta": {"OBJECT_NAME": "COSMOS 2251 DEB", "OBJECT_ID": "1993-036EH", "EPOCH": "2025-12-20T12:23:17.034432", "MEAN_MOTION": 14.47417403, "ECCENTRICITY": 0.0061856, "INCLINATION": 73.9255, "RA_OF_ASC_NODE": 37.9239, "ARG_OF_PERICENTER": 330.4254, "MEAN_ANOMALY": 29.341, "EPHEMERIS_TYPE": 0, "CLASSIFICATION_TYPE": "U", "NORAD_CAT_ID": 33928, "ELEMENT_SET_NO": 999, "REV_AT_EPOCH": 88757, "BSTAR": 0.00017211, "MEAN_MOTION_DOT": 6.17e-06, "MEAN_MOTION_DDOT": 0}, "tle": {"line1": "1 33928U 93036EH  25354.51616938  .00000617  00000+0  17211-3 0  9992", "line2": "2 33928  73.9255  37.9239 0061856 330.4254  29.3410 14.47417403887577"}}, "geometry": {"type": "Point", "coordinates": [30.939614580376084, -17.353831366350033]}}, {"type": "Feature", "properties": {"norad_id": 33932, "name": "COSMOS 2251 DEB", "group": "cosmos-2251-debris", "lat": -26.34530560536977, "lon": 127.9472108698077, "alt_km": 792.6815147355119, "timestamp": "2025-12-21T11:31:43.252480+00:00", "meta": {"OBJECT_NAME": "COSMOS 2251 DEB", "OBJECT_ID": "1993-036EM", "EPOCH": "2025-12-21T00:33:19.531008", "MEAN_MOTION": 14.38779808, "ECCENTRICITY": 0.0035758, "INCLINATION": 74.0342, "RA_OF_ASC_NODE": 300.6397, "ARG_OF_PERICENTER": 14.8001, "MEAN_ANOMALY": 345.4191, "EPHEMERIS_TYPE": 0, "CLASSIFICATION_TYPE": "U", "NORAD_CAT_ID": 33932, "ELEMENT_SET_NO": 999, "REV_AT_EPOCH": 88117, "BSTAR": 0.00033028, "MEAN_MOTION_DOT": 9.96e-06, "MEAN_MOTION_DDOT": 0}, "tle": {"line1": "1 33932U 93036EM  25355.02314272  .00000996  00000+0  33028-3 0  9994", "line2": "2 33932  74.0342 300.6397 0035758  14.8001 345.4191 14.38779808881179"}}, "geometry": {"type": "Point", "coordinates": [127.9472108698077, -26.34530560536977]}}, {"type": "Feature", "properties": {"norad_id": 33933, "name": "COSMOS 2251 DEB", "group": "cosmos-2251-debris", "lat": -64.4513055551686, "lon": -99.15735472362306, "alt_km": 834.6745011431431, "timestamp": "2025-12-21T11:31:43.252490+00:00", "meta": {"OBJECT_NAME": "COSMOS 2251 DEB", "OBJECT_ID": "1993-036EN", "EPOCH": "2025-12-21T03:40:10.153920", "MEAN_MOTION": 14.33500542, "ECCENTRICITY": 0.0070914, "INCLINATION": 74.089, "RA_OF_ASC_NODE": 44.8031, "ARG_OF_PERICENTER": 50.6933, "MEAN_ANOMALY": 310.0477, "EPHEMERIS_TYPE": 0, "CLASSIFICATION_TYPE": "U", "NORAD_CAT_ID": 33933, "ELEMENT_SET_NO": 999, "REV_AT_EPOCH": 87905, "BSTAR": 0.00018553, "MEAN_MOTION_DOT": 5.02e-06, "MEAN_MOTION_DDOT": 0}, "tle": {"line1": "1 33933U 93036EN  25355.15289530  .00000502  00000+0  18553-3 0  9996", "line2": "2 33933  74.0890  44.8031 0070914  50.6933 310.0477 14.33500542879056"}}, "geometry": {"type": "Point", "coordinates": [-99.15735472362306, -64.4513055551686]}}, {"type": "Feature", "properties": {"norad_id": 33934, "name": "COSMOS 2251 DEB", "group": "cosmos-2251-debris", "lat": 73.79335356448397, "lon": -176.05180721746606, "alt_km": 692.9713025682349, "timestamp": "2025-12-21T11:31:43.252501+00:00", "meta": {"OBJECT_NAME": "COSMOS 2251 DEB", "OBJECT_ID": "1993-036EP", "EPOCH": "2025-12-20T15:21:31.141728", "MEAN_MOTION": 14.5916745, "ECCENTRICITY": 0.0015357, "INCLINATION": 74.0383, "RA_OF_ASC_NODE": 85.5194, "ARG_OF_PERICENTER": 209.3264, "MEAN_ANOMALY": 150.7041, "EPHEMERIS_TYPE": 0, "CLASSIFICATION_TYPE": "U", "NORAD_CAT_ID": 33934, "ELEMENT_SET_NO": 999, "REV_AT_EPOCH": 88854, "BSTAR": 0.00054829204, "MEAN_MOTION_DOT": 2.559e-05, "MEAN_MOTION_DDOT": 0}, "tle": {"line1": "1 33934U 93036EP  25354.63994377  .00002559  00000+0  54829-3 0  9991", "line2": "2 33934  74.0383  85.5194 0015357 209.3264 150.7041 14.59167450888541"}}, "geometry": {"type": "Point", "coordinates": [-176.05180721746606, 73.79335356448397]}}, {"type": "Feature", "properties": {"norad_id": 33936, "name": "COSMOS 2251 DEB", "group": "cosmos-2251-debris", "lat": 53.621562017237785, "lon": 43.67312749432782, "alt_km": 695.4372823111935, "timestamp": "2025-12-21T11:31:43.252511+00:00", "meta": {"OBJECT_NAME": "COSMOS 2251 DEB", "OBJECT_ID": "1993-036ER", "EPOCH": "2025-12-21T04:41:29.155776", "MEAN_MOTION": 14.60317266, "ECCENTRICITY": 0.002696, "INCLINATION": 74.0177, "RA_OF_ASC_NODE": 21.3225, "ARG_OF_PERICENTER": 174.8084, "MEAN_ANOMALY": 185.3367, "EPHEMERIS_TYPE": 0, "CLASSIFICATION_TYPE": "U", "NORAD_CAT_ID": 33936, "ELEMENT_SET_NO": 999, "REV_AT_EPOCH": 89013, "BSTAR": 0.00039977, "MEAN_MOTION_DOT": 1.912e-05, "MEAN_MOTION_DDOT": 0}, "tle": {"line1": "1 33936U 93036ER  25355.19547634  .00001912  00000+0  39977-3 0  9994", "line2": "2 33936  74.0177  21.3225 0026960 174.8084 185.3367 14.60317266890132"}}, "geometry": {"type": "Point", "coordinates": [43.67312749432782, 53.621562017237785]}}, {"type": "Feature", "properties": {"norad_id": 33938, "name": "COSMOS 2251 DEB", "group": "cosmos-2251-debris", "lat": -25.50415729744791, "lon": 18.702231854266326, "alt_km": 736.3924743565312, "timestamp": "2025-12-21T11:31:43.252522+00:00", "meta": {"OBJECT_NAME": "COSMOS 2251 DEB", "OBJECT_ID": "1993-036ET", "EPOCH": "2025-12-20T21:35:57.280128", "MEAN_MOTION": 14.46815606, "ECCENTRICITY": 0.0016832, "INCLINATION": 74.0437, "RA_OF_ASC_NODE": 191.9407, "ARG_OF_PERICENTER": 273.4263, "MEAN_ANOMALY": 151.4755, "EPHEMERIS_TYPE": 0, "CLASSIFICATION_TYPE": "U", "NORAD_CAT_ID": 33938, "ELEMENT_SET_NO": 999, "REV_AT_EPOCH": 88518, "BSTAR": 0.00029629, "MEAN_MOTION_DOT": 1.048e-05, "MEAN_MOTION_DDOT": 0}, "tle": {"line1": "1 33938U 93036ET  25354.89996852  .00001048  00000+0  29629-3 0  9995", "line2": "2 33938  74.0437 191.9407 0016832 273.4263 151.4755 14.46815606885180"}}, "geometry": {"type": "Point", "coordinates": [18.702231854266326, -25.50415729744791]}}]}